CCSDS_OMM_VERS = 2.0
CREATION_DATE  = 
ORIGINATOR     = 

OBJECT_NAME    = STARLINK-35490
OBJECT_ID      = 2025-243AD
CENTER_NAME    = EARTH
REF_FRAME      = TEME
TIME_SYSTEM    = UTC
MEAN_ELEMENT_THEORY = SGP/SGP4

EPOCH          = 2025-11-13T13:46:30.396288
MEAN_MOTION    = 15.74291455
ECCENTRICITY   = .0001273
INCLINATION    = 53.1580
RA_OF_ASC_NODE = 66.9058
ARG_OF_PERICENTER = 46.6826
MEAN_ANOMALY   = 313.4300

EPHEMERIS_TYPE = 0
CLASSIFICATION_TYPE = U
NORAD_CAT_ID   = 66204
ELEMENT_SET_NO = 999
REV_AT_EPOCH   = 284
BSTAR          = .16838E-2
MEAN_MOTION_DOT = .254699E-2
MEAN_MOTION_DDOT = 0

CCSDS_OMM_VERS = 2.0
CREATION_DATE  = 
ORIGINATOR     = 

OBJECT_NAME    = STARLINK-35748
OBJECT_ID      = 2025-244A
CENTER_NAME    = EARTH
REF_FRAME      = TEME
TIME_SYSTEM    = UTC
MEAN_ELEMENT_THEORY = SGP/SGP4

EPOCH          = 2025-11-13T18:00:02.998944
MEAN_MOTION    = 15.61552225
ECCENTRICITY   = .0000953
INCLINATION    = 53.1592
RA_OF_ASC_NODE = 53.2458
ARG_OF_PERICENTER = 65.2735
MEAN_ANOMALY   = 200.6584

EPHEMERIS_TYPE = 0
CLASSIFICATION_TYPE = U
NORAD_CAT_ID   = 66206
ELEMENT_SET_NO = 999
REV_AT_EPOCH   = 360
BSTAR          = -.25525E-1
MEAN_MOTION_DOT = -.1964418E-1
MEAN_MOTION_DDOT = 0

CCSDS_OMM_VERS = 2.0
CREATION_DATE  = 
ORIGINATOR     = 

OBJECT_NAME    = STARLINK-35747
OBJECT_ID      = 2025-244B
CENTER_NAME    = EARTH
REF_FRAME      = TEME
TIME_SYSTEM    = UTC
MEAN_ELEMENT_THEORY = SGP/SGP4

EPOCH          = 2025-11-13T18:00:02.998944
MEAN_MOTION    = 15.74129852
ECCENTRICITY   = .0001006
INCLINATION    = 53.1589
RA_OF_ASC_NODE = 53.1061
ARG_OF_PERICENTER = 72.8636
MEAN_ANOMALY   = 261.7370

EPHEMERIS_TYPE = 0
CLASSIFICATION_TYPE = U
NORAD_CAT_ID   = 66207
ELEMENT_SET_NO = 999
REV_AT_EPOCH   = 360
BSTAR          = .70608E-3
MEAN_MOTION_DOT = .103793E-2
MEAN_MOTION_DDOT = 0

CCSDS_OMM_VERS = 2.0
CREATION_DATE  = 
ORIGINATOR     = 

OBJECT_NAME    = STARLINK-35751
OBJECT_ID      = 2025-244C
CENTER_NAME    = EARTH
REF_FRAME      = TEME
TIME_SYSTEM    = UTC
MEAN_ELEMENT_THEORY = SGP/SGP4

EPOCH          = 2025-11-13T18:00:02.998944
MEAN_MOTION    = 15.61552774
ECCENTRICITY   = .0000934
INCLINATION    = 53.1592
RA_OF_ASC_NODE = 53.2380
ARG_OF_PERICENTER = 60.4869
MEAN_ANOMALY   = 209.2774

EPHEMERIS_TYPE = 0
CLASSIFICATION_TYPE = U
NORAD_CAT_ID   = 66208
ELEMENT_SET_NO = 999
REV_AT_EPOCH   = 371
BSTAR          = -.25527E-1
MEAN_MOTION_DOT = -.1964561E-1
MEAN_MOTION_DDOT = 0

CCSDS_OMM_VERS = 2.0
CREATION_DATE  = 
ORIGINATOR     = 

OBJECT_NAME    = STARLINK-35750
OBJECT_ID      = 2025-244D
CENTER_NAME    = EARTH
REF_FRAME      = TEME
TIME_SYSTEM    = UTC
MEAN_ELEMENT_THEORY = SGP/SGP4

EPOCH          = 2025-11-13T18:00:02.998944
MEAN_MOTION    = 15.61553244
ECCENTRICITY   = .0000942
INCLINATION    = 53.1592
RA_OF_ASC_NODE = 53.2293
ARG_OF_PERICENTER = 67.6956
MEAN_ANOMALY   = 205.9037

EPHEMERIS_TYPE = 0
CLASSIFICATION_TYPE = U
NORAD_CAT_ID   = 66209
ELEMENT_SET_NO = 999
REV_AT_EPOCH   = 368
BSTAR          = -.25545E-1
MEAN_MOTION_DOT = -.1965821E-1
MEAN_MOTION_DDOT = 0

CCSDS_OMM_VERS = 2.0
CREATION_DATE  = 
ORIGINATOR     = 

OBJECT_NAME    = STARLINK-35740
OBJECT_ID      = 2025-244E
CENTER_NAME    = EARTH
REF_FRAME      = TEME
TIME_SYSTEM    = UTC
MEAN_ELEMENT_THEORY = SGP/SGP4

EPOCH          = 2025-11-13T18:00:02.998944
MEAN_MOTION    = 15.61554345
ECCENTRICITY   = .0000963
INCLINATION    = 53.1591
RA_OF_ASC_NODE = 53.2331
ARG_OF_PERICENTER = 64.5227
MEAN_ANOMALY   = 207.1582

EPHEMERIS_TYPE = 0
CLASSIFICATION_TYPE = U
NORAD_CAT_ID   = 66210
ELEMENT_SET_NO = 999
REV_AT_EPOCH   = 355
BSTAR          = -.25555E-1
MEAN_MOTION_DOT = -.196656E-1
MEAN_MOTION_DDOT = 0

CCSDS_OMM_VERS = 2.0
CREATION_DATE  = 
ORIGINATOR     = 

OBJECT_NAME    = STARLINK-35723
OBJECT_ID      = 2025-244F
CENTER_NAME    = EARTH
REF_FRAME      = TEME
TIME_SYSTEM    = UTC
MEAN_ELEMENT_THEORY = SGP/SGP4

EPOCH          = 2025-11-13T18:00:02.998944
MEAN_MOTION    = 15.61551884
ECCENTRICITY   = .0000918
INCLINATION    = 53.1592
RA_OF_ASC_NODE = 53.2247
ARG_OF_PERICENTER = 61.8959
MEAN_ANOMALY   = 213.6199

EPHEMERIS_TYPE = 0
CLASSIFICATION_TYPE = U
NORAD_CAT_ID   = 66211
ELEMENT_SET_NO = 999
REV_AT_EPOCH   = 360
BSTAR          = -.25514E-1
MEAN_MOTION_DOT = -.196361E-1
MEAN_MOTION_DDOT = 0

CCSDS_OMM_VERS = 2.0
CREATION_DATE  = 
ORIGINATOR     = 

OBJECT_NAME    = STARLINK-35710
OBJECT_ID      = 2025-244G
CENTER_NAME    = EARTH
REF_FRAME      = TEME
TIME_SYSTEM    = UTC
MEAN_ELEMENT_THEORY = SGP/SGP4

EPOCH          = 2025-11-13T18:00:02.998944
MEAN_MOTION    = 15.61554126
ECCENTRICITY   = .0000988
INCLINATION    = 53.1592
RA_OF_ASC_NODE = 53.2168
ARG_OF_PERICENTER = 61.1340
MEAN_ANOMALY   = 218.2136

EPHEMERIS_TYPE = 0
CLASSIFICATION_TYPE = U
NORAD_CAT_ID   = 66212
ELEMENT_SET_NO = 999
REV_AT_EPOCH   = 368
BSTAR          = -.25543E-1
MEAN_MOTION_DOT = -.1965766E-1
MEAN_MOTION_DDOT = 0

CCSDS_OMM_VERS = 2.0
CREATION_DATE  = 
ORIGINATOR     = 

OBJECT_NAME    = STARLINK-34204
OBJECT_ID      = 2025-244H
CENTER_NAME    = EARTH
REF_FRAME      = TEME
TIME_SYSTEM    = UTC
MEAN_ELEMENT_THEORY = SGP/SGP4

EPOCH          = 2025-11-13T18:00:02.998944
MEAN_MOTION    = 15.61556748
ECCENTRICITY   = .0000978
INCLINATION    = 53.1592
RA_OF_ASC_NODE = 53.2214
ARG_OF_PERICENTER = 55.3241
MEAN_ANOMALY   = 222.1033

EPHEMERIS_TYPE = 0
CLASSIFICATION_TYPE = U
NORAD_CAT_ID   = 66213
ELEMENT_SET_NO = 999
REV_AT_EPOCH   = 387
BSTAR          = -.25576E-1
MEAN_MOTION_DOT = -.1968194E-1
MEAN_MOTION_DDOT = 0

CCSDS_OMM_VERS = 2.0
CREATION_DATE  = 
ORIGINATOR     = 

OBJECT_NAME    = STARLINK-35714
OBJECT_ID      = 2025-244J
CENTER_NAME    = EARTH
REF_FRAME      = TEME
TIME_SYSTEM    = UTC
MEAN_ELEMENT_THEORY = SGP/SGP4

EPOCH          = 2025-11-13T18:00:02.998944
MEAN_MOTION    = 15.61552835
ECCENTRICITY   = .0000959
INCLINATION    = 53.1591
RA_OF_ASC_NODE = 53.2008
ARG_OF_PERICENTER = 59.7409
MEAN_ANOMALY   = 227.2748

EPHEMERIS_TYPE = 0
CLASSIFICATION_TYPE = U
NORAD_CAT_ID   = 66214
ELEMENT_SET_NO = 999
REV_AT_EPOCH   = 355
BSTAR          = -.25522E-1
MEAN_MOTION_DOT = -.1964264E-1
MEAN_MOTION_DDOT = 0

CCSDS_OMM_VERS = 2.0
CREATION_DATE  = 
ORIGINATOR     = 

OBJECT_NAME    = STARLINK-35712
OBJECT_ID      = 2025-244K
CENTER_NAME    = EARTH
REF_FRAME      = TEME
TIME_SYSTEM    = UTC
MEAN_ELEMENT_THEORY = SGP/SGP4

EPOCH          = 2025-11-13T18:00:02.998944
MEAN_MOTION    = 15.61536801
ECCENTRICITY   = .0000995
INCLINATION    = 53.1592
RA_OF_ASC_NODE = 53.1930
ARG_OF_PERICENTER = 62.4687
MEAN_ANOMALY   = 228.3928

EPHEMERIS_TYPE = 0
CLASSIFICATION_TYPE = U
NORAD_CAT_ID   = 66215
ELEMENT_SET_NO = 999
REV_AT_EPOCH   = 355
BSTAR          = -.25301E-1
MEAN_MOTION_DOT = -.1948203E-1
MEAN_MOTION_DDOT = 0

CCSDS_OMM_VERS = 2.0
CREATION_DATE  = 
ORIGINATOR     = 

OBJECT_NAME    = STARLINK-35709
OBJECT_ID      = 2025-244L
CENTER_NAME    = EARTH
REF_FRAME      = TEME
TIME_SYSTEM    = UTC
MEAN_ELEMENT_THEORY = SGP/SGP4

EPOCH          = 2025-11-13T18:00:02.998944
MEAN_MOTION    = 15.61554536
ECCENTRICITY   = .0000911
INCLINATION    = 53.1590
RA_OF_ASC_NODE = 53.2132
ARG_OF_PERICENTER = 65.6173
MEAN_ANOMALY   = 215.6476

EPHEMERIS_TYPE = 0
CLASSIFICATION_TYPE = U
NORAD_CAT_ID   = 66216
ELEMENT_SET_NO = 999
REV_AT_EPOCH   = 355
BSTAR          = -.25555E-1
MEAN_MOTION_DOT = -.1966545E-1
MEAN_MOTION_DDOT = 0

CCSDS_OMM_VERS = 2.0
CREATION_DATE  = 
ORIGINATOR     = 

OBJECT_NAME    = STARLINK-35700
OBJECT_ID      = 2025-244M
CENTER_NAME    = EARTH
REF_FRAME      = TEME
TIME_SYSTEM    = UTC
MEAN_ELEMENT_THEORY = SGP/SGP4

EPOCH          = 2025-11-13T18:00:02.998944
MEAN_MOTION    = 15.61550477
ECCENTRICITY   = .0000869
INCLINATION    = 53.1589
RA_OF_ASC_NODE = 53.2093
ARG_OF_PERICENTER = 57.9634
MEAN_ANOMALY   = 225.2200

EPHEMERIS_TYPE = 0
CLASSIFICATION_TYPE = U
NORAD_CAT_ID   = 66217
ELEMENT_SET_NO = 999
REV_AT_EPOCH   = 355
BSTAR          = -.25489E-1
MEAN_MOTION_DOT = -.1961809E-1
MEAN_MOTION_DDOT = 0

CCSDS_OMM_VERS = 2.0
CREATION_DATE  = 
ORIGINATOR     = 

OBJECT_NAME    = STARLINK-35722
OBJECT_ID      = 2025-244N
CENTER_NAME    = EARTH
REF_FRAME      = TEME
TIME_SYSTEM    = UTC
MEAN_ELEMENT_THEORY = SGP/SGP4

EPOCH          = 2025-11-13T18:00:02.998944
MEAN_MOTION    = 15.61552151
ECCENTRICITY   = .0000964
INCLINATION    = 53.1589
RA_OF_ASC_NODE = 53.2051
ARG_OF_PERICENTER = 57.1506
MEAN_ANOMALY   = 227.9479

EPHEMERIS_TYPE = 0
CLASSIFICATION_TYPE = U
NORAD_CAT_ID   = 66218
ELEMENT_SET_NO = 999
REV_AT_EPOCH   = 355
BSTAR          = -.25512E-1
MEAN_MOTION_DOT = -.19635E-1
MEAN_MOTION_DDOT = 0

CCSDS_OMM_VERS = 2.0
CREATION_DATE  = 
ORIGINATOR     = 

OBJECT_NAME    = STARLINK-35737
OBJECT_ID      = 2025-244P
CENTER_NAME    = EARTH
REF_FRAME      = TEME
TIME_SYSTEM    = UTC
MEAN_ELEMENT_THEORY = SGP/SGP4

EPOCH          = 2025-11-13T18:00:02.998944
MEAN_MOTION    = 15.61555144
ECCENTRICITY   = .0000923
INCLINATION    = 53.1592
RA_OF_ASC_NODE = 53.1974
ARG_OF_PERICENTER = 62.5581
MEAN_ANOMALY   = 226.3734

EPHEMERIS_TYPE = 0
CLASSIFICATION_TYPE = U
NORAD_CAT_ID   = 66219
ELEMENT_SET_NO = 999
REV_AT_EPOCH   = 371
BSTAR          = -.25561E-1
MEAN_MOTION_DOT = -.1967001E-1
MEAN_MOTION_DDOT = 0

